{"type": "FeatureCollection", "features": [ {"type": "Feature", "properties": {"norad_id": 29868, "name": "FENGYUN 1C DEB", "group": "fengyun-1c-debris", "lat": -6.7528754585266055, "lon": 24.377093163170223, "alt_km": 531.7130311619894, "timestamp": "2025-12-03T13:52:09.833469+00:00", "meta": {"OBJECT_NAME": "FENGYUN 1C DEB", "OBJECT_ID": "1999-025FN", "EPOCH": "2025-12-03T02:39:05.186016", "MEAN_MOTION": 14.78228227, "ECCENTRICITY": 0.01980293, "INCLINATION": 97.952, "RA_OF_ASC_NODE": 22.9669, "ARG_OF_PERICENTER": 35.1316, "MEAN_ANOMALY": 353.7241, "EPHEMERIS_TYPE": 0, "CLASSIFICATION_TYPE": "U", "NORAD_CAT_ID": 29868, "ELEMENT_SET_NO": 999, "REV_AT_EPOCH": 153, "BSTAR": 0.00077510772, "MEAN_MOTION_DOT": 7.763e-05, "MEAN_MOTION_DDOT": 0}, "tle": {"line1": "1 29868U 99025FN  25337.11047669  .00007763  00000+0  77511-3 0  9998", "line2": "2 29868  97.9520  22.9669 0198029  35.1316 353.7241 14.78228227  1536"}}, "geometry": {"type": "Point", "coordinates": [24.377093163170223, -6.7528754585266055]}}, {"type": "Feature", "properties": {"norad_id": 29869, "name": "FENGYUN 1C DEB", "group": "fengyun-1c-debris", "lat": -28.31785391754162, "lon": -87.5799586402463, "alt_km": 749.0747425295531, "timestamp": "2025-12-03T13:52:09.833479+00:00", "meta": {"OBJECT_NAME": "FENGYUN 1C DEB", "OBJECT_ID": "1999-025FP", "EPOCH": "2025-12-03T07:51:35.837568", "MEAN_MOTION": 14.36842969, "ECCENTRICITY": 0.00880754, "INCLINATION": 98.872, "RA_OF_ASC_NODE": 267.334, "ARG_OF_PERICENTER": 38.5636, "MEAN_ANOMALY": 79.3189, "EPHEMERIS_TYPE": 0, "CLASSIFICATION_TYPE": "U", "NORAD_CAT_ID": 29869, "ELEMENT_SET_NO": 999, "REV_AT_EPOCH": 98685, "BSTAR": 0.00059979898, "MEAN_MOTION_DOT": 1.806e-05, "MEAN_MOTION_DDOT": 0}, "tle": {"line1": "1 29869U 99025FP  25337.32749812  .00001806  00000+0  59980-3 0  9993", "line2": "2 29869  98.8720 267.3340 0088075  38.5636  79.3189 14.36842969986859"}}, "geometry": {"type": "Point", "coordinates": [-87.5799586402463, -28.31785391754162]}}, {"type": "Feature", "properties": {"norad_id": 29870, "name": "FENGYUN 1C DEB", "group": "fengyun-1c-debris", "lat": -79.10772497472556, "lon": 78.1119445818862, "alt_km": 739.970124368202, "timestamp": "2025-12-03T13:52:09.833490+00:00", "meta": {"OBJECT_NAME": "FENGYUN 1C DEB", "OBJECT_ID": "1999-025FQ", "EPOCH": "2025-12-03T04:33:22.057632", "MEAN_MOTION": 14.2897549, "ECCENTRICITY": 0.01193505, "INCLINATION": 98.4589, "RA_OF_ASC_NODE": 308.39, "ARG_OF_PERICENTER": 220.669, "MEAN_ANOMALY": 206.3753, "EPHEMERIS_TYPE": 0, "CLASSIFICATION_TYPE": "U", "NORAD_CAT_ID": 29870, "ELEMENT_SET_NO": 999, "REV_AT_EPOCH": 98457, "BSTAR": 7.7363466e-05, "MEAN_MOTION_DOT": 1.67e-06, "MEAN_MOTION_DDOT": 0}, "tle": {"line1": "1 29870U 99025FQ  25337.18983863  .00000167  00000+0  77363-4 0  9990", "line2": "2 29870  98.4589 308.3900 0119350 220.6690 206.3753 14.28975490984576"}}, "geometry": {"type": "Point", "coordinates": [78.1119445818862, -79.10772497472556]}}, {"type": "Feature", "properties": {"norad_id": 29871, "name": "FENGYUN 1C DEB", "group": "fengyun-1c-debris", "lat": 55.376179515047994, "lon": 123.45866094256483, "alt_km": 704.018593886537, "timestamp": "2025-12-03T13:52:09.833501+00:00", "meta": {"OBJECT_NAME": "FENGYUN 1C DEB", "OBJECT_ID": "1999-025FR", "EPOCH": "2025-12-02T20:58:59.005056", "MEAN_MOTION": 14.42542631, "ECCENTRICITY": 0.00582008, "INCLINATION": 98.9714, "RA_OF_ASC_NODE": 289.4928, "ARG_OF_PERICENTER": 136.4139, "MEAN_ANOMALY": 295.4204, "EPHEMERIS_TYPE": 0, "CLASSIFICATION_TYPE": "U", "NORAD_CAT_ID": 29871, "ELEMENT_SET_NO": 999, "REV_AT_EPOCH": 98559, "BSTAR": 0.0011675402, "MEAN_MOTION_DOT": 3.905e-05, "MEAN_MOTION_DDOT": 0}, "tle": {"line1": "1 29871U 99025FR  25336.87429404  .00003905  00000+0  11675-2 0  9997", "line2": "2 29871  98.9714 289.4928 0058200 136.4139 295.4204 14.42542631985595"}}, "geometry": {"type": "Point", "coordinates": [123.45866094256483, 55.376179515047994]}}, {"type": "Feature", "properties": {"norad_id": 29872, "name": "FENGYUN 1C DEB", "group": "fengyun-1c-debris", "lat": 62.88870754673032, "lon": -22.87778329045057, "alt_km": 731.447312670789, "timestamp": "2025-12-03T13:52:09.833511+00:00", "meta": {"OBJECT_NAME": "FENGYUN 1C DEB", "OBJECT_ID": "1999-025FS", "EPOCH": "2025-12-02T14:12:58.846464", "MEAN_MOTION": 14.38867794, "ECCENTRICITY": 0.0236028, "INCLINATION": 98.3461, "RA_OF_ASC_NODE": 352.8251, "ARG_OF_PERICENTER": 344.1814, "MEAN_ANOMALY": 15.2088, "EPHEMERIS_TYPE": 0, "CLASSIFICATION_TYPE": "U", "NORAD_CAT_ID": 29872, "ELEMENT_SET_NO": 999, "REV_AT_EPOCH": 98446, "BSTAR": 0.00083701463, "MEAN_MOTION_DOT": 3.517e-05, "MEAN_MOTION_DDOT": 0}, "tle": {"line1": "1 29872U 99025FS  25336.59234776  .00003517  00000+0  83701-3 0  9992", "line2": "2 29872  98.3461 352.8251 0236028 344.1814  15.2088 14.38867794984465"}}, "geometry": {"type": "Point", "coordinates": [-22.87778329045057, 62.88870754673032]}}, {"type": "Feature", "properties": {"norad_id": 29873, "name": "FENGYUN 1C DEB", "group": "fengyun-1c-debris", "lat": 41.38155700474994, "lon": -171.04439005017716, "alt_km": 964.0847681754503, "timestamp": "2025-12-03T13:52:09.833521+00:00", "meta": {"OBJECT_NAME": "FENGYUN 1C DEB", "OBJECT_ID": "1999-025FT", "EPOCH": "2025-12-03T03:57:18.205920", "MEAN_MOTION": 13.98139167, "ECCENTRICITY": 0.00924237, "INCLINATION": 99.4435, "RA_OF_ASC_NODE": 196.9627, "ARG_OF_PERICENTER": 225.1658, "MEAN_ANOMALY": 258.8364, "EPHEMERIS_TYPE": 0, "CLASSIFICATION_TYPE": "U", "NORAD_CAT_ID": 29873, "ELEMENT_SET_NO": 999, "REV_AT_EPOCH": 96181, "BSTAR": 0.00014437582, "MEAN_MOTION_DOT": 1.65e-06, "MEAN_MOTION_DDOT": 0}, "tle": {"line1": "1 29873U 99025FT  25337.16479405  .00000165  00000+0  14438-3 0  9994", "line2": "2 29873  99.4435 196.9627 0092423 225.1658 258.8364 13.98139167961813"}}, "geometry": {"type": "Point", "coordinates": [-171.04439005017716, 41.38155700474994]}}, {"type": "Feature", "properties": {"norad_id": 29874, "name": "FENGYUN 1C DEB", "group": "fengyun-1c-debris", "lat": -25.48599662117237, "lon": -121.14905370000423, "alt_km": 746.149556067302, "timestamp": "2025-12-03T13:52:09.833532+00:00", "meta": {"OBJECT_NAME": "FENGYUN 1C DEB", "OBJECT_ID": "1999-025FU", "EPOCH": "2025-12-03T06:09:35.951040", "MEAN_MOTION": 14.28568336, "ECCENTRICITY": 0.01056389, "INCLINATION": 98.3796, "RA_OF_ASC_NODE": 234.5134, "ARG_OF_PERICENTER": 18.1317, "MEAN_ANOMALY": 105.9475, "EPHEMERIS_TYPE": 0, "CLASSIFICATION_TYPE": "U", "NORAD_CAT_ID": 29874, "ELEMENT_SET_NO": 999, "REV_AT_EPOCH": 96712, "BSTAR": 0.0039108037, "MEAN_MOTION_DOT": 0.00010388, "MEAN_MOTION_DDOT": 0}, "tle": {"line1": "1 29874U 99025FU  25337.25666610  .00010388  00000+0  39108-2 0  9999", "line2": "2 29874  98.3796 234.5134 0105638  18.1317 105.9475 14.28568336967122"}}, "geometry": {"type": "Point", "coordinates": [-121.14905370000423, -25.48599662117237]}}, {"type": "Feature", "properties": {"norad_id": 29875, "name": "FENGYUN 1C DEB", "group": "fengyun-1c-debris", "lat": -53.504860499512155, "lon": 40.919185840790874, "alt_km": 864.1822316528269, "timestamp": "2025-12-03T13:52:09.833542+00:00", "meta": {"OBJECT_NAME": "FENGYUN 1C DEB", "OBJECT_ID": "1999-025FV", "EPOCH": "2025-12-03T02:28:04.169856", "MEAN_MOTION": 14.24876044, "ECCENTRICITY": 0.00833124, "INCLINATION": 98.4065, "RA_OF_ASC_NODE": 28.9342, "ARG_OF_PERICENTER": 91.1493, "MEAN_ANOMALY": 299.6501, "EPHEMERIS_TYPE": 0, "CLASSIFICATION_TYPE": "U", "NORAD_CAT_ID": 29875, "ELEMENT_SET_NO": 999, "REV_AT_EPOCH": 98185, "BSTAR": 4.6903726e-05, "MEAN_MOTION_DOT": 7.3e-07, "MEAN_MOTION_DDOT": 0}, "tle": {"line1": "1 29875U 99025FV  25337.10282604  .00000073  00000+0  46904-4 0  9995", "line2": "2 29875  98.4065  28.9342 0083312  91.1493 299.6501 14.24876044981850"}}, "geometry": {"type": "Point", "coordinates": [40.919185840790874, -53.504860499512155]}}, {"type": "Feature", "properties": {"norad_id": 29876, "name": "FENGYUN 1C DEB", "group": "fengyun-1c-debris", "lat": -8.248608408987517, "lon": 29.896048102486066, "alt_km": 800.6815739375252, "timestamp": "2025-12-03T13:52:09.833553+00:00", "meta": {"OBJECT_NAME": "FENGYUN 1C DEB", "OBJECT_ID": "1999-025FW", "EPOCH": "2025-12-03T02:10:04.353888", "MEAN_MOTION": 14.20287421, "ECCENTRICITY": 0.00620062, "INCLINATION": 98.3347, "RA_OF_ASC_NODE": 28.2188, "ARG_OF_PERICENTER": 45.2611, "MEAN_ANOMALY": 335.5701, "EPHEMERIS_TYPE": 0, "CLASSIFICATION_TYPE": "U", "NORAD_CAT_ID": 29876, "ELEMENT_SET_NO": 999, "REV_AT_EPOCH": 97780, "BSTAR": 0.00018535584, "MEAN_MOTION_DOT": 3.64e-06, "MEAN_MOTION_DDOT": 0}, "tle": {"line1": "1 29876U 99025FW  25337.09032817  .00000364  00000+0  18536-3 0  9995", "line2": "2 29876  98.3347  28.2188 0062006  45.2611 335.5701 14.20287421977806"}}, "geometry": {"type": "Point", "coordinates": [29.896048102486066, -8.248608408987517]}}, {"type": "Feature", "properties": {"norad_id": 29877, "name": "FENGYUN 1C DEB", "group": "fengyun-1c-debris", "lat": 63.747198121830785, "lon": -34.58980174460981, "alt_km": 835.8090546272961, "timestamp": "2025-12-03T13:52:09.833563+00:00", "meta": {"OBJECT_NAME": "FENGYUN 1C DEB", "OBJECT_ID": "1999-025FX", "EPOCH": "2025-12-02T22:43:39.604224", "MEAN_MOTION": 14.24755613, "ECCENTRICITY": 0.00455514, "INCLINATION": 98.5374, "RA_OF_ASC_NODE": 342.5289, "ARG_OF_PERICENTER": 247.4837, "MEAN_ANOMALY": 183.4877, "EPHEMERIS_TYPE": 0, "CLASSIFICATION_TYPE": "U", "NORAD_CAT_ID": 29877, "ELEMENT_SET_NO": 999, "REV_AT_EPOCH": 97834, "BSTAR": 0.00060178723, "MEAN_MOTION_DOT": 1.374e-05, "MEAN_MOTION_DDOT": 0}, "tle": {"line1": "1 29877U 99025FX  25336.94698616  .00001374  00000+0  60179-3 0  9996", "line2": "2 29877  98.5374 342.5289 0045551 247.4837 183.4877 14.24755613978346"}}, "geometry": {"type": "Point", "coordinates": [-34.58980174460981, 63.747198121830785]}}]}